[{"OBJECT_NAME":"ORBCOMM FM112","OBJECT_ID":"2015-081F","EPOCH":"2026-03-09T06:49:20.492544","MEAN_MOTION":14.58729862,"ECCENTRICITY":9.704e-5,"INCLINATION":47.0003,"RA_OF_ASC_NODE":22.5762,"ARG_OF_PERICENTER":95.8711,"MEAN_ANOMALY":264.2285,"EPHEMERIS_TYPE":0,"CLASSIFICATION_TYPE":"U","NORAD_CAT_ID":41184,"ELEMENT_SET_NO":999,"REV_AT_EPOCH":54436,"BSTAR":0.00024093646,"MEAN_MOTION_DOT":9.65e-6,"MEAN_MOTION_DDOT":0},{"OBJECT_NAME":"COSMOS 2251 DEB","OBJECT_ID":"1993-036YF","EPOCH":"2026-03-09T20:09:31.112352","MEAN_MOTION":14.58414598,"ECCENTRICITY":0.0012017,"INCLINATION":74.032,"RA_OF_ASC_NODE":343.0542,"ARG_OF_PERICENTER":66.8207,"MEAN_ANOMALY":359.5675,"EPHEMERIS_TYPE":0,"CLASSIFICATION_TYPE":"U","NORAD_CAT_ID":34685,"ELEMENT_SET_NO":999,"REV_AT_EPOCH":89801,"BSTAR":0.0011009014,"MEAN_MOTION_DOT":5.083e-5,"MEAN_MOTION_DDOT":0}]
